{
  "last_updated": "2026-06-01T06:00:03.007014",
  "satellites": {
    "98592": {
      "name": "DUTHSat-2",
      "norad_id": "98592",
      "tle": "1 64530U 25135C   26151.54751059  .00016742  00000-0  64358-3 0  9994\n2 64530  97.4608 267.4712 0003802 234.7845 125.3038 15.26485331 52398",
      "epoch": "2026-05-31T13:08:24.914976",
      "fetched_at": "2026-06-01T06:00:03.111355",
      "source": "satnogs"
    },
    "98530": {
      "name": "LAMARR",
      "norad_id": "98530",
      "tle": "1 66673U 25276H   26026.90917087  .00034524  00000-0  16680-2 0  9998\n2 66673  97.4301 102.8338 0007597 141.5941 218.5835 15.18529012  8972",
      "epoch": "2026-01-26T21:49:12.363168",
      "fetched_at": "2026-01-28T06:00:02.884758",
      "source": "satnogs",
      "note": "Using previous TLE (fetch/manual failed today)"
    },
    "98529": {
      "name": "DIRAC",
      "norad_id": "98529",
      "tle": "1 66681U 25276R   26026.63281774  .00024563  00000-0  11745-2 0  9993\n2 66681  97.4280 102.5712 0006320 148.4115 211.7500 15.18972786  8932",
      "epoch": "2026-01-26T15:11:15.452736",
      "fetched_at": "2026-01-28T06:00:02.937152",
      "source": "satnogs",
      "note": "Using previous TLE (fetch/manual failed today)"
    },
    "98518": {
      "name": "MICE-1",
      "norad_id": "98518",
      "tle": "1 66684U 25276U   26151.18498718  .00005292  00000-0  25558-3 0  9999\n2 66684  97.4276 225.0972 0006785  63.7299 296.4632 15.19054768 27834",
      "epoch": "2026-05-31T04:26:22.892352",
      "fetched_at": "2026-06-01T06:00:03.266720",
      "source": "satnogs"
    },
    "68416": {
      "name": "PeakSat",
      "norad_id": "68416",
      "tle": "1 68416U 26067A   26151.42957428  .00010412  00000-0  49686-3 0  9996\n2 68416  97.4540 110.2216 0002074  29.2656 330.8694 15.19250713  9402",
      "epoch": "2026-05-31T10:18:35.217792",
      "fetched_at": "2026-06-01T06:00:03.316303",
      "source": "satnogs"
    },
    "98370": {
      "name": "OptiSat",
      "norad_id": "98370",
      "tle": "1 69696U 69696    26089.46895426  .00000000  00000-0  00000-0 0 00004\n2 69696 097.4414 038.3720 0003145 156.7651 191.1423 15.18459822000011",
      "epoch": "2026-03-30T11:15:17.648064",
      "fetched_at": "2026-04-17T12:47:18.541523",
      "source": "manual"
    },
    "68468": {
      "name": "ERMIS-1",
      "norad_id": "68468",
      "tle": "1 68468U 26067BE  26151.44255625  .00012897  00000-0  64736-3 0  9997\n2 68468  97.4543 110.0627 0008877 109.2710 250.9485 15.17401677  9396",
      "epoch": "2026-05-31T10:37:16.860000",
      "fetched_at": "2026-06-01T06:00:03.365953",
      "source": "satnogs"
    },
    "68420": {
      "name": "ERMIS-2",
      "norad_id": "68420",
      "tle": "1 68420U 26067E   26151.82393823  .00012121  00000-0  57470-3 0  9997\n2 68420  97.4475 110.5646 0001470  54.9232 305.2140 15.19437774  9460",
      "epoch": "2026-05-31T19:46:28.263072",
      "fetched_at": "2026-06-01T06:00:03.410232",
      "source": "satnogs"
    },
    "98367": {
      "name": "ERMIS-3",
      "norad_id": "98367",
      "tle": "1 68425U 26067K   26151.38564823  .00007316  00000-0  35674-3 0  9995\n2 68425  97.4579 110.1616 0003069  64.6474 295.5077 15.18605394  9391",
      "epoch": "2026-05-31T09:15:20.007072",
      "fetched_at": "2026-06-01T06:00:03.467515",
      "source": "satnogs"
    },
    "69021": {
      "name": "Helios",
      "norad_id": "69021",
      "tle": "1 69021U 26100AT  26151.64850486  .00008784  00000-0  41331-3 0  9995\n2 69021  97.4047  49.7326 0006277  59.9236 300.2621 15.19770813  4299",
      "epoch": "2026-05-31T15:33:50.819904",
      "fetched_at": "2026-06-01T06:00:03.513737",
      "source": "satnogs"
    },
    "69020": {
      "name": "Selene",
      "norad_id": "69020",
      "tle": "1 69020U 26100AS  26151.71612243  .00007072  00000-0  33444-3 0  9994\n2 69020  97.4064  49.8036 0005614  55.2894 304.8869 15.19671214  4300",
      "epoch": "2026-05-31T17:11:12.977952",
      "fetched_at": "2026-06-01T06:00:03.564174",
      "source": "satnogs"
    }
  },
  "fetch_log": []
}